STARLINK-34293          
1 64275U 25120V   25171.83334491 -.01861856  00000+0 -25702-1 0  9998
2 64275  53.1595 258.8463 0001132 107.6163 203.3915 15.59808410  3671
STARLINK-34350          
1 64276U 25120W   25171.83334491 -.01858535  00000+0 -25653-1 0  9994
2 64276  53.1596 258.8426 0001018  87.8096 225.1150 15.59806748  3731
STARLINK-34264          
1 64277U 25120X   25171.83334491 -.01860408  00000+0 -25678-1 0  9994
2 64277  53.1600 258.8383 0001113  99.5344 215.3044 15.59810055  3674
STARLINK-34353          
1 64278U 25120Y   25171.83334491 -.01869621  00000+0 -25817-1 0  9996
2 64278  53.1599 258.8341 0001197  98.5310 218.2247 15.59813868  3739
STARLINK-34377          
1 64279U 25120Z   25171.83334491 -.01862605  00000+0 -25713-1 0  9997
2 64279  53.1597 258.8266 0001024  91.0199 229.5706 15.59810127  3736
STARLINK-34359          
1 64280U 25120AA  25171.83334491 -.01867322  00000+0 -25784-1 0  9998
2 64280  53.1601 258.8307 0001120  93.9571 224.7172 15.59811758  3737
STARLINK-34366          
1 64281U 25120AB  25171.83334491 -.01867626  00000+0 -25788-1 0  9990
2 64281  53.1596 258.8225 0001100 106.6172 215.8887 15.59812702  3685
STARLINK-34381          
1 64282U 25120AC  25171.83334491 -.01874093  00000+0 -25887-1 0  9997
2 64282  53.1598 258.8183 0001112  89.9265 234.4996 15.59814464  3696
HULIANWANG DIGUI-30     
1 64283U 25121A   25170.80383879 -.00000113  00000+0 -15604-3 0  9990
2 64283  86.5011 137.5643 0009879 179.5729 180.5440 13.66512286  1911
HULIANWANG DIGUI-31     
1 64284U 25121B   25170.87501394 -.00000088  00000+0 -12378-3 0  9998
2 64284  86.4960 137.5386 0013732 170.1446 189.9985 13.67465286  1920
HULIANWANG DIGUI-32     
1 64285U 25121C   25170.58035564 -.00000102  00000+0 -13688-3 0  9990
2 64285  86.4957 137.6296 0009212 173.3375 186.7908 13.68994065  1880
HULIANWANG DIGUI-33     
1 64286U 25121D   25171.89460761 -.00000088  00000+0 -12141-3 0  9993
2 64286  86.5016 137.1641 0008812 162.8960 197.2498 13.69114540  2060
HULIANWANG DIGUI-34     
1 64287U 25121E   25171.89379341 -.00000098  00000+0 -13262-3 0  9993
2 64287  86.4995 137.1585 0008493 161.9776 198.1687 13.69190920  2069
CZ-6A R/B               
1 64288U 25121F   25171.84302587  .00000018  00000+0 -64095-6 0  9991
2 64288  86.5089 136.9671 0104239  69.4226 291.8093 13.94024915  2098
SXM-10                  
1 64290U 25122A   25171.56070859  .00000012  00000+0  00000+0 0  9990
2 64290   0.0973 281.9410 0004585 224.8671 203.5421  1.00335385   318
STARLINK-34448          
1 64291U 25123A   25171.39116380 -.00339748  00000+0 -19267-2 0  9994
2 64291  69.9935 154.0740 0004437 292.1017  67.9712 15.79639498  3091
STARLINK-34362          
1 64292U 25123B   25171.39035670 -.00413365  00000+0 -23711-2 0  9994
2 64292  69.9936 154.0706 0003458 282.9903  77.0912 15.79583404  3097
STARLINK-34428          
1 64293U 25123C   25171.39080366 -.00411590  00000+0 -23578-2 0  9996
2 64293  69.9936 154.0727 0003467 282.2544  77.8268 15.79607900  3095
STARLINK-34388          
1 64294U 25123D   25171.83343274  .00285379  00000+0  15595-2 0  9998
2 64294  69.9934 152.8049 0005317 247.5166 112.5471 15.78906442  3070
STARLINK-34424          
1 64295U 25123E   25171.38945616 -.00441857  00000+0 -25485-2 0  9993
2 64295  69.9933 154.0667 0003973 275.2147  84.8600 15.79529485  3099
STARLINK-34443          
1 64296U 25123F   25171.38904488 -.00356141  00000+0 -20339-2 0  9990
2 64296  69.9936 154.0651 0003125 283.6102  76.4751 15.79538034  3093
STARLINK-34369          
1 64297U 25123G   25171.83214149 -.00370542  00000+0 -22224-2 0  9995
2 64297  69.9933 152.8001 0005436 301.1396  58.9270 15.78468661  1742
STARLINK-34391          
1 64298U 25123H   25171.89510835 -.00185324  00000+0 -10913-2 0  9997
2 64298  69.9929 152.6176 0005146 280.6501  79.4120 15.78398231  1787
STARLINK-34378          
1 64299U 25123J   25171.89467226 -.00397060  00000+0 -24128-2 0  9998
2 64299  69.9932 152.6169 0003846 275.1540  84.9221 15.78261923  1747
STARLINK-34376          
1 64300U 25123K   25171.89425110 -.00442499  00000+0 -27127-2 0  9996
2 64300  69.9931 152.6148 0004508 280.6916  79.3776 15.78175584  1795
STARLINK-34372          
1 64301U 25123L   25171.89382788  .00258422  00000+0  14428-2 0  9999
2 64301  69.9930 152.6131 0006195 269.0154  91.0336 15.78493173  1785
STARLINK-34379          
1 64302U 25123M   25171.89340939 -.00418266  00000+0 -25619-2 0  9992
2 64302  69.9930 152.6107 0004074 280.7843  79.2898 15.78137406  1783
STARLINK-34356          
1 64303U 25123N   25171.89297677 -.00456471  00000+0 -28163-2 0  9990
2 64303  69.9929 152.6093 0004837 282.2766  77.7892 15.78065217  1860
STARLINK-34360          
1 64304U 25123P   25171.89258769 -.00417970  00000+0 -25676-2 0  9997
2 64304  69.9929 152.6076 0004133 284.0485  76.0255 15.78070712  1792
STARLINK-34383          
1 64305U 25123Q   25171.89217452 -.00427072  00000+0 -26313-2 0  9995
2 64305  69.9930 152.6060 0004114 278.5633  81.5101 15.78028118  1851
STARLINK-34355          
1 64306U 25123R   25171.89134181  .00295207  00000+0  15499-2 0  9997
2 64306  69.9927 152.6023 0012347 259.6308 100.3501 15.79688779  1785
STARLINK-34380          
1 64307U 25123S   25171.82793786  .00331188  00000+0  18319-2 0  9996
2 64307  69.9928 152.7829 0006284 254.4131 105.6375 15.78508114  1805
STARLINK-34374          
1 64308U 25123T   25171.82750171  .00295774  00000+0  16491-2 0  9997
2 64308  69.9924 152.7803 0006246 245.3073 114.7477 15.78423781  1839
STARLINK-34370          
1 64309U 25123U   25171.89050212 -.00493484  00000+0 -30948-2 0  9997
2 64309  69.9923 152.5982 0004958 285.4231  74.6420 15.77793761  1855
STARLINK-34357          
1 64310U 25123V   25171.89010211 -.00244944  00000+0 -14883-2 0  9999
2 64310  69.9923 152.5964 0006368 292.8788  67.1739 15.77843382  1869
STARLINK-34368          
1 64311U 25123W   25171.88967336 -.00472647  00000+0 -29639-2 0  9996
2 64311  69.9922 152.5950 0004636 276.9000  83.1672 15.77745670  1786
STARLINK-34384          
1 64312U 25123X   25171.88929281 -.00275188  00000+0 -16820-2 0  9993
2 64312  69.9921 152.5935 0003260 283.9883  76.0954 15.77820100  1773
STARLINK-34358          
1 64313U 25123Y   25171.88887070 -.00412438  00000+0 -25722-2 0  9995
2 64313  69.9921 152.5920 0003250 262.1591  97.9240 15.77726644  1769
STARLINK-34354          
1 64314U 25123Z   25171.88844478 -.00558125  00000+0 -35667-2 0  9994
2 64314  69.9924 152.5904 0005101 282.3219  77.7410 15.77536537  1779
STARLINK-34387          
1 64315U 25123AA  25171.88803440 -.00476639  00000+0 -30169-2 0  9990
2 64315  69.9922 152.5886 0004653 286.7233  73.3456 15.77547217  1849
STARLINK-33590          
1 64316U 25123AB  25171.88759825 -.00468302  00000+0 -29693-2 0  9996
2 64316  69.9920 152.5871 0004645 283.2642  76.8039 15.77486793  1733
STARLINK-11736 [DTC]    
1 64317U 25124A   25171.83334491 -.00962294  00000+0 -56428-2 0  9996
2 64317  43.0030 169.2179 0001596 273.2028  71.9772 15.79861655  2742
STARLINK-11673 [DTC]    
1 64318U 25124B   25171.83334491 -.00943745  00000+0 -49898-2 0  9990
2 64318  43.0031 169.1777 0001331 266.3614  94.9661 15.82031044  2790
STARLINK-11671 [DTC]    
1 64319U 25124C   25171.83334491 -.00907016  00000+0 -43200-2 0  9993
2 64319  43.0032 169.1563 0001508 284.1356  85.5753 15.84124679  2733
STARLINK-11594 [DTC]    
1 64320U 25124D   25171.58335648  .00120140  00000+0  49749-3 0  9990
2 64320  43.0037 170.6892 0001755 281.3986 102.9669 15.84712380  2602
STARLINK-11596 [DTC]    
1 64321U 25124E   25171.83334491 -.00168188  00000+0 -70988-3 0  9999
2 64321  43.0038 169.1437 0001480 292.6311  82.0646 15.84833284  2648
STARLINK-11747 [DTC]    
1 64322U 25124F   25171.83334491 -.00070558  00000+0 -29364-3 0  9995
2 64322  43.0034 169.1380 0001497 263.1719 114.0106 15.84799858  2808
STARLINK-11728 [DTC]    
1 64323U 25124G   25171.83334491  .00012081  00000+0  52760-4 0  9998
2 64323  43.0036 169.1317 0001971 256.7463 122.7409 15.84704775  2561
STARLINK-11696 [DTC]    
1 64324U 25124H   25171.83334491 -.00016671  00000+0 -67293-4 0  9997
2 64324  43.0034 169.1248 0001502 246.4200 135.8676 15.84764703  2735
STARLINK-11698 [DTC]    
1 64325U 25124J   25171.83334491 -.00045202  00000+0 -18713-3 0  9992
2 64325  43.0035 169.1199 0001488 281.3924 103.0265 15.84756235  2738
STARLINK-11678 [DTC]    
1 64326U 25124K   25171.58335648  .00043254  00000+0  18199-3 0  9991
2 64326  43.0034 170.6526 0000839 252.6884 146.5679 15.84735027  2539
STARLINK-11674 [DTC]    
1 64327U 25124L   25171.83334491 -.00046233  00000+0 -19131-3 0  9994
2 64327  43.0035 169.1068 0001546 247.2370 142.2389 15.84773663  2732
STARLINK-11707 [DTC]    
1 64328U 25124M   25171.58335648  .00017890  00000+0  76796-4 0  9998
2 64328  43.0036 170.6400 0001534 263.5764 140.5752 15.84750021  2701
STARLINK-11734 [DTC]    
1 64329U 25124N   25171.83334491 -.00027438  00000+0 -11237-3 0  9991
2 64329  43.0036 169.0929 0002214 307.6896  87.3666 15.84766382  2655
STARLINK-34352          
1 64330U 25124P   25171.83334491 -.00908678  00000+0 -51258-2 0  9993
2 64330  43.0028 169.1092 0001478 276.7005 111.4346 15.80558994  2747
STARLINK-34050          
1 64331U 25124Q   25171.58335648 -.00923178  00000+0 -50916-2 0  9993
2 64331  43.0032 170.6348 0001413 283.0798 122.6441 15.81079638  2668
STARLINK-33782          
1 64332U 25124R   25171.83334491 -.00921730  00000+0 -52066-2 0  9997
2 64332  43.0030 169.0984 0001687 274.8739 117.5632 15.80560912  2654
STARLINK-34207          
1 64333U 25124S   25171.58335648 -.00937242  00000+0 -51771-2 0  9992
2 64333  43.0031 170.6233 0001544 287.1566 123.0026 15.81081668  2610
STARLINK-34260          
1 64334U 25124T   25171.58335648 -.00947907  00000+0 -52452-2 0  9999
2 64334  43.0030 170.6174 0001570 287.9454 124.6403 15.81071364  2716
